ONEWEB-0260             
1 48978U 21060M   25256.30837564  .00000138  00000+0  32847-3 0  9999
2 48978  87.8975 283.9862 0002043  78.9209 281.2152 13.16595652203171
ONEWEB-0261             
1 48979U 21060N   25256.05031387  .00000025  00000+0  32993-4 0  9999
2 48979  87.8974 284.0395 0001508  85.8447 274.2856 13.16593850203193
ONEWEB-0262             
1 48980U 21060P   25255.49853321 -.00000043  00000+0 -14554-3 0  9992
2 48980  87.8985 284.1138 0001712 102.0449 258.0874 13.16595404203089
ONEWEB-0263             
1 48981U 21060Q   25256.06218855  .00000064  00000+0  13272-3 0  9991
2 48981  87.8975 284.0235 0001417  94.0289 266.1004 13.16594295203127
ONEWEB-0264             
1 48982U 21060R   25256.02339028  .00000028  00000+0  40617-4 0  9998
2 48982  87.8972 284.0363 0001820  85.3148 274.8191 13.16593597203129
ONEWEB-0266             
1 48984U 21060T   25255.89277686 -.00000045  00000+0 -15060-3 0  9999
2 48984  87.8983 284.0391 0001964  98.8847 261.2507 13.16594617203099
ONEWEB-0267             
1 48985U 21060U   25256.05585508  .00000110  00000+0  25340-3 0  9997
2 48985  87.8982 284.0093 0001616  89.4256 270.7060 13.16594050203126
ONEWEB-0268             
1 48986U 21060V   25255.79618794 -.00000083  00000+0 -25077-3 0  9990
2 48986  87.8982 284.0673 0001909  89.8025 270.3324 13.16595172203354
ONEWEB-0269             
1 48987U 21060W   25255.77720197  .00000001  00000+0 -31744-4 0  9998
2 48987  87.8976 284.1012 0002019  91.9193 268.2169 13.16594125203124
ONEWEB-0270             
1 48988U 21060X   25256.02260249  .00000053  00000+0  10513-3 0  9991
2 48988  87.8984 284.0234 0001449  96.6016 263.5280 13.16595460203193
ONEWEB-0271             
1 48989U 21060Y   25256.08593415  .00000024  00000+0  28246-4 0  9993
2 48989  87.8990 283.9949 0001590  89.6004 270.5309 13.16594954203207
ONEWEB-0272             
1 48990U 21060Z   25256.03209006  .00000031  00000+0  47421-4 0  9994
2 48990  87.8977 284.0337 0001729  86.3095 273.8233 13.16596381203146
ONEWEB-0273             
1 48991U 21060AA  25255.82628840 -.00000010  00000+0 -59891-4 0  9995
2 48991  87.8981 284.0628 0001749  95.5656 264.5675 13.16593859203090
ONEWEB-0274             
1 48992U 21060AB  25256.30759745  .00000088  00000+0  19555-3 0  9994
2 48992  87.8981 283.9980 0001923  80.8681 279.2667 13.16594287203190
ONEWEB-0275             
1 48993U 21060AC  25255.84052611  .00000138  00000+0  32791-3 0  9994
2 48993  87.8981 284.0547 0001818  89.6989 270.4351 13.16593995203067
ONEWEB-0276             
1 48994U 21060AD  25255.79777772 -.00000007  00000+0 -53181-4 0  9995
2 48994  87.8984 284.0605 0001813  97.8229 262.3108 13.16595047203070
