[{"OBJECT_NAME":"ONEWEB-0260","OBJECT_ID":"2021-060M","EPOCH":"2025-09-13T07:24:03.655296","MEAN_MOTION":13.16595652,"ECCENTRICITY":0.00020439,"INCLINATION":87.8975,"RA_OF_ASC_NODE":283.9862,"ARG_OF_PERICENTER":78.9209,"MEAN_ANOMALY":281.2152,"EPHEMERIS_TYPE":0,"CLASSIFICATION_TYPE":"U","NORAD_CAT_ID":48978,"ELEMENT_SET_NO":999,"REV_AT_EPOCH":20317,"BSTAR":0.00032847441,"MEAN_MOTION_DOT":1.38e-6,"MEAN_MOTION_DDOT":0},{"OBJECT_NAME":"ONEWEB-0261","OBJECT_ID":"2021-060N","EPOCH":"2025-09-13T01:12:27.118368","MEAN_MOTION":13.1659385,"ECCENTRICITY":0.00015086,"INCLINATION":87.8974,"RA_OF_ASC_NODE":284.0395,"ARG_OF_PERICENTER":85.8447,"MEAN_ANOMALY":274.2856,"EPHEMERIS_TYPE":0,"CLASSIFICATION_TYPE":"U","NORAD_CAT_ID":48979,"ELEMENT_SET_NO":999,"REV_AT_EPOCH":20319,"BSTAR":3.2993001e-5,"MEAN_MOTION_DOT":2.5e-7,"MEAN_MOTION_DDOT":0},{"OBJECT_NAME":"ONEWEB-0262","OBJECT_ID":"2021-060P","EPOCH":"2025-09-12T11:57:53.269344","MEAN_MOTION":13.16595404,"ECCENTRICITY":0.00017128,"INCLINATION":87.8985,"RA_OF_ASC_NODE":284.1138,"ARG_OF_PERICENTER":102.0449,"MEAN_ANOMALY":258.0874,"EPHEMERIS_TYPE":0,"CLASSIFICATION_TYPE":"U","NORAD_CAT_ID":48980,"ELEMENT_SET_NO":999,"REV_AT_EPOCH":20308,"BSTAR":-0.00014554425,"MEAN_MOTION_DOT":-4.3e-7,"MEAN_MOTION_DDOT":0},{"OBJECT_NAME":"ONEWEB-0263","OBJECT_ID":"2021-060Q","EPOCH":"2025-09-13T01:29:33.090720","MEAN_MOTION":13.16594295,"ECCENTRICITY":0.00014178,"INCLINATION":87.8975,"RA_OF_ASC_NODE":284.0235,"ARG_OF_PERICENTER":94.0289,"MEAN_ANOMALY":266.1004,"EPHEMERIS_TYPE":0,"CLASSIFICATION_TYPE":"U","NORAD_CAT_ID":48981,"ELEMENT_SET_NO":999,"REV_AT_EPOCH":20312,"BSTAR":0.00013271839,"MEAN_MOTION_DOT":6.4e-7,"MEAN_MOTION_DDOT":0},{"OBJECT_NAME":"ONEWEB-0264","OBJECT_ID":"2021-060R","EPOCH":"2025-09-13T00:33:40.920192","MEAN_MOTION":13.16593597,"ECCENTRICITY":0.00018202,"INCLINATION":87.8972,"RA_OF_ASC_NODE":284.0363,"ARG_OF_PERICENTER":85.3148,"MEAN_ANOMALY":274.8191,"EPHEMERIS_TYPE":0,"CLASSIFICATION_TYPE":"U","NORAD_CAT_ID":48982,"ELEMENT_SET_NO":999,"REV_AT_EPOCH":20312,"BSTAR":4.0617323e-5,"MEAN_MOTION_DOT":2.8e-7,"MEAN_MOTION_DDOT":0},{"OBJECT_NAME":"ONEWEB-0266","OBJECT_ID":"2021-060T","EPOCH":"2025-09-12T21:25:35.920704","MEAN_MOTION":13.16594617,"ECCENTRICITY":0.00019644,"INCLINATION":87.8983,"RA_OF_ASC_NODE":284.0391,"ARG_OF_PERICENTER":98.8847,"MEAN_ANOMALY":261.2507,"EPHEMERIS_TYPE":0,"CLASSIFICATION_TYPE":"U","NORAD_CAT_ID":48984,"ELEMENT_SET_NO":999,"REV_AT_EPOCH":20309,"BSTAR":-0.0001505967,"MEAN_MOTION_DOT":-4.5e-7,"MEAN_MOTION_DDOT":0},{"OBJECT_NAME":"ONEWEB-0267","OBJECT_ID":"2021-060U","EPOCH":"2025-09-13T01:20:25.878912","MEAN_MOTION":13.1659405,"ECCENTRICITY":0.00016162,"INCLINATION":87.8982,"RA_OF_ASC_NODE":284.0093,"ARG_OF_PERICENTER":89.4256,"MEAN_ANOMALY":270.706,"EPHEMERIS_TYPE":0,"CLASSIFICATION_TYPE":"U","NORAD_CAT_ID":48985,"ELEMENT_SET_NO":999,"REV_AT_EPOCH":20312,"BSTAR":0.00025340134,"MEAN_MOTION_DOT":1.1e-6,"MEAN_MOTION_DDOT":0},{"OBJECT_NAME":"ONEWEB-0268","OBJECT_ID":"2021-060V","EPOCH":"2025-09-12T19:06:30.638016","MEAN_MOTION":13.16595172,"ECCENTRICITY":0.00019093,"INCLINATION":87.8982,"RA_OF_ASC_NODE":284.0673,"ARG_OF_PERICENTER":89.8025,"MEAN_ANOMALY":270.3324,"EPHEMERIS_TYPE":0,"CLASSIFICATION_TYPE":"U","NORAD_CAT_ID":48986,"ELEMENT_SET_NO":999,"REV_AT_EPOCH":20335,"BSTAR":-0.00025076511,"MEAN_MOTION_DOT":-8.3e-7,"MEAN_MOTION_DDOT":0},{"OBJECT_NAME":"ONEWEB-0269","OBJECT_ID":"2021-060W","EPOCH":"2025-09-12T18:39:10.250208","MEAN_MOTION":13.16594125,"ECCENTRICITY":0.00020199,"INCLINATION":87.8976,"RA_OF_ASC_NODE":284.1012,"ARG_OF_PERICENTER":91.9193,"MEAN_ANOMALY":268.2169,"EPHEMERIS_TYPE":0,"CLASSIFICATION_TYPE":"U","NORAD_CAT_ID":48987,"ELEMENT_SET_NO":999,"REV_AT_EPOCH":20312,"BSTAR":-3.1743529e-5,"MEAN_MOTION_DOT":1.0e-8,"MEAN_MOTION_DDOT":0},{"OBJECT_NAME":"ONEWEB-0270","OBJECT_ID":"2021-060X","EPOCH":"2025-09-13T00:32:32.855136","MEAN_MOTION":13.1659546,"ECCENTRICITY":0.00014497,"INCLINATION":87.8984,"RA_OF_ASC_NODE":284.0234,"ARG_OF_PERICENTER":96.6016,"MEAN_ANOMALY":263.528,"EPHEMERIS_TYPE":0,"CLASSIFICATION_TYPE":"U","NORAD_CAT_ID":48988,"ELEMENT_SET_NO":999,"REV_AT_EPOCH":20319,"BSTAR":0.00010513345,"MEAN_MOTION_DOT":5.3e-7,"MEAN_MOTION_DDOT":0},{"OBJECT_NAME":"ONEWEB-0271","OBJECT_ID":"2021-060Y","EPOCH":"2025-09-13T02:03:44.710560","MEAN_MOTION":13.16594954,"ECCENTRICITY":0.00015904,"INCLINATION":87.899,"RA_OF_ASC_NODE":283.9949,"ARG_OF_PERICENTER":89.6004,"MEAN_ANOMALY":270.5309,"EPHEMERIS_TYPE":0,"CLASSIFICATION_TYPE":"U","NORAD_CAT_ID":48989,"ELEMENT_SET_NO":999,"REV_AT_EPOCH":20320,"BSTAR":2.824569e-5,"MEAN_MOTION_DOT":2.4e-7,"MEAN_MOTION_DDOT":0},{"OBJECT_NAME":"ONEWEB-0272","OBJECT_ID":"2021-060Z","EPOCH":"2025-09-13T00:46:12.581184","MEAN_MOTION":13.16596381,"ECCENTRICITY":0.00017295,"INCLINATION":87.8977,"RA_OF_ASC_NODE":284.0337,"ARG_OF_PERICENTER":86.3095,"MEAN_ANOMALY":273.8233,"EPHEMERIS_TYPE":0,"CLASSIFICATION_TYPE":"U","NORAD_CAT_ID":48990,"ELEMENT_SET_NO":999,"REV_AT_EPOCH":20314,"BSTAR":4.7420661e-5,"MEAN_MOTION_DOT":3.1e-7,"MEAN_MOTION_DDOT":0},{"OBJECT_NAME":"ONEWEB-0273","OBJECT_ID":"2021-060AA","EPOCH":"2025-09-12T19:49:51.317760","MEAN_MOTION":13.16593859,"ECCENTRICITY":0.00017497,"INCLINATION":87.8981,"RA_OF_ASC_NODE":284.0628,"ARG_OF_PERICENTER":95.5656,"MEAN_ANOMALY":264.5675,"EPHEMERIS_TYPE":0,"CLASSIFICATION_TYPE":"U","NORAD_CAT_ID":48991,"ELEMENT_SET_NO":999,"REV_AT_EPOCH":20309,"BSTAR":-5.9890847e-5,"MEAN_MOTION_DOT":-1.0e-7,"MEAN_MOTION_DDOT":0},{"OBJECT_NAME":"ONEWEB-0274","OBJECT_ID":"2021-060AB","EPOCH":"2025-09-13T07:22:56.419680","MEAN_MOTION":13.16594287,"ECCENTRICITY":0.00019232,"INCLINATION":87.8981,"RA_OF_ASC_NODE":283.998,"ARG_OF_PERICENTER":80.8681,"MEAN_ANOMALY":279.2667,"EPHEMERIS_TYPE":0,"CLASSIFICATION_TYPE":"U","NORAD_CAT_ID":48992,"ELEMENT_SET_NO":999,"REV_AT_EPOCH":20319,"BSTAR":0.00019554753,"MEAN_MOTION_DOT":8.8e-7,"MEAN_MOTION_DDOT":0},{"OBJECT_NAME":"ONEWEB-0275","OBJECT_ID":"2021-060AC","EPOCH":"2025-09-12T20:10:21.455904","MEAN_MOTION":13.16593995,"ECCENTRICITY":0.00018188,"INCLINATION":87.8981,"RA_OF_ASC_NODE":284.0547,"ARG_OF_PERICENTER":89.6989,"MEAN_ANOMALY":270.4351,"EPHEMERIS_TYPE":0,"CLASSIFICATION_TYPE":"U","NORAD_CAT_ID":48993,"ELEMENT_SET_NO":999,"REV_AT_EPOCH":20306,"BSTAR":0.00032790725,"MEAN_MOTION_DOT":1.38e-6,"MEAN_MOTION_DDOT":0},{"OBJECT_NAME":"ONEWEB-0276","OBJECT_ID":"2021-060AD","EPOCH":"2025-09-12T19:08:47.995008","MEAN_MOTION":13.16595047,"ECCENTRICITY":0.00018133,"INCLINATION":87.8984,"RA_OF_ASC_NODE":284.0605,"ARG_OF_PERICENTER":97.8229,"MEAN_ANOMALY":262.3108,"EPHEMERIS_TYPE":0,"CLASSIFICATION_TYPE":"U","NORAD_CAT_ID":48994,"ELEMENT_SET_NO":999,"REV_AT_EPOCH":20307,"BSTAR":-5.3180638e-5,"MEAN_MOTION_DOT":-7.0e-8,"MEAN_MOTION_DDOT":0}]
